OBJECT_NAME,OBJECT_ID,EPOCH,MEAN_MOTION,ECCENTRICITY,INCLINATION,RA_OF_ASC_NODE,ARG_OF_PERICENTER,MEAN_ANOMALY,EPHEMERIS_TYPE,CLASSIFICATION_TYPE,NORAD_CAT_ID,ELEMENT_SET_NO,REV_AT_EPOCH,BSTAR,MEAN_MOTION_DOT,MEAN_MOTION_DDOT
M2 PATHFINDER,2020-037E,2026-07-13T12:19:06.894336,15.04788602,.0013054,97.8145,26.0427,67.6872,292.5736,0,U,45727,999,32945,.61445E-4,.804E-5,0
NETSAT-4,2020-068U,2026-07-13T11:55:24.733920,15.44718994,.0004527,97.8600,204.8684,199.6935,160.4138,0,U,46504,999,31983,.23716E-3,.10982E-3,0
NETSAT-3,2020-068V,2026-07-13T06:19:37.966368,15.43563557,.000356,97.8649,202.8011,219.4839,140.6148,0,U,46505,999,31970,.25092E-3,.11177E-3,0
NETSAT-1,2020-068W,2026-07-13T11:20:26.522016,15.35220253,.0002411,97.8748,197.0419,273.3754,86.7213,0,U,46506,999,31933,.21236E-3,.7172E-4,0
NETSAT-2,2020-068X,2026-07-13T11:57:35.896896,15.47113865,.0001915,97.8610,204.8657,216.6397,143.4721,0,U,46507,999,31980,.29073E-3,.14643E-3,0
GREENCUBE (IO-117),2022-080E,2026-07-12T17:00:29.177856,6.42583319,.00090302,70.1415,289.3709,284.1311,75.8345,0,U,53109,999,9370,0,-.3E-7,0
SITRO-AIS 5 (KATYS),2023-091L,2026-07-13T11:54:49.296096,15.30040819,.0010813,97.5053,258.6543,18.4611,341.7020,0,U,57176,999,16836,.22999E-3,.662E-4,0
SITRO-AIS 6 (CHIRKIN),2023-091AC,2026-07-13T11:18:43.774272,15.26417658,.0011375,97.5060,257.6067,22.5651,337.6085,0,U,57192,999,16829,.22633E-3,.5828E-4,0
SITRO-AIS 8 (ANOKHIN),2023-091AD,2026-07-13T11:11:47.162112,15.32827558,.0009692,97.5049,260.3220,14.5285,345.6233,0,U,57193,999,16847,.27528E-3,.866E-4,0
SITRO-AIS 7 (FARTUSHNIY),2023-091AE,2026-07-13T11:31:09.058944,15.26092146,.0011321,97.5056,257.4265,23.7651,336.4108,0,U,57194,999,16828,.20799E-3,.5297E-4,0
SITRO-AIS 10 (BURDAEV),2023-091AK,2026-07-13T10:48:17.008704,15.39584756,.0005008,97.5075,265.6363,348.7168,11.3964,0,U,57199,999,16880,.30875E-3,.12075E-3,0
SITRO-AIS 9 (SHCHUKIN),2023-091AM,2026-07-13T11:38:37.119840,15.39071596,.0005266,97.5074,265.3812,348.9545,11.1583,0,U,57201,999,16879,.31826E-3,.12243E-3,0
SITRO-AIS 12 (SMIRENNIY),2023-091AQ,2026-07-13T11:17:54.110688,15.39367169,.0004821,97.5087,265.8501,341.8227,18.2845,0,U,57204,999,16881,.31849E-3,.1237E-3,0
SITRO-AIS 11 (SHEFFER),2023-091AU,2026-07-13T11:26:33.742752,15.39809175,.0004722,97.5085,266.1197,341.1035,19.0034,0,U,57208,999,16883,.31592E-3,.12449E-3,0
SITRO-AIS 25,2024-039R,2026-07-13T12:07:03.837792,14.93636467,.0142657,95.3894,253.1776,235.4959,123.2728,0,U,59066,999,12865,.14494E-3,.1834E-4,0
SITRO-AIS 26,2024-039S,2026-07-13T12:14:15.646848,14.93428645,.0142999,95.3894,253.0732,236.0993,122.6565,0,U,59067,999,12864,.14705E-3,.1852E-4,0
SITRO-AIS 27,2024-039T,2026-07-13T11:20:43.713024,14.93853384,.0142044,95.3899,253.3316,234.7633,124.0231,0,U,59068,999,12866,.11106E-3,.1403E-4,0
SITRO-AIS 28,2024-039U,2026-07-13T10:47:24.393696,14.93886927,.0141961,95.3897,253.3645,234.6778,124.1108,0,U,59071,999,12866,.15454E-3,.1968E-4,0
GRBBETA,2024-128C,2026-07-13T05:38:25.454976,15.06800912,.0037305,61.9896,124.8657,140.2081,220.1759,0,U,60237,999,11019,.14278E-3,.1948E-4,0
OOV-CUBE (TUBSAT-30),2024-128F,2026-07-13T09:41:52.284768,15.02869569,.0041356,61.9937,134.1487,139.6220,220.7954,0,U,60240,999,11005,.94341E-4,.1077E-4,0
ROBUSTA-3A (MEDITERRANEE),2024-128J,2026-07-13T07:50:29.027040,15.11970668,.0038243,61.9864,115.7855,133.5897,226.8383,0,U,60243,999,11037,.27208E-3,.4545E-4,0
LASARSAT,2024-247Q,2026-07-12T23:54:51.800832,15.47948222,.00069769,44.9747,117.0092,149.4103,210.7196,0,U,62391,999,8731,.53150637E-3,.28123E-3,0
CROCUBE,2024-247T,2026-07-12T19:57:59.439744,15.50071349,.0007253,44.9714,114.8252,157.3362,202.7851,0,U,62394,999,8732,.49242E-3,.28068E-3,0
FORESAIL-1 PRIME,2025-276DS,2026-07-13T03:38:54.599712,15.18928427,.00030419,97.4194,266.9496,49.5627,310.5873,0,U,66778,999,3434,.14455425E-3,.2951E-4,0
KNACKSAT-2,1998-067XZ,2026-07-13T06:37:11.095104,15.62269029,.0008057,51.6258,163.0209,321.9354,38.1070,0,U,67683,999,2435,.4098E-3,.36553E-3,0
