M2 PATHFINDER           
1 45727U 20037E   26194.51327424  .00000804  00000+0  61445-4 0  9992
2 45727  97.8145  26.0427 0013054  67.6872 292.5736 15.04788602329459
NETSAT-4                
1 46504U 20068U   26194.49681405  .00010982  00000+0  23716-3 0  9995
2 46504  97.8600 204.8684 0004527 199.6935 160.4138 15.44718994319832
NETSAT-3                
1 46505U 20068V   26194.26363387  .00011177  00000+0  25092-3 0  9993
2 46505  97.8649 202.8011 0003560 219.4839 140.6148 15.43563557319707
NETSAT-1                
1 46506U 20068W   26194.47252919  .00007172  00000+0  21236-3 0  9991
2 46506  97.8748 197.0419 0002411 273.3754  86.7213 15.35220253319330
NETSAT-2                
1 46507U 20068X   26194.49833214  .00014643  00000+0  29073-3 0  9995
2 46507  97.8610 204.8657 0001915 216.6397 143.4721 15.47113865319801
GREENCUBE (IO-117)      
1 53109U 22080E   26193.70867104 -.00000003  00000+0  00000+0 0  9996
2 53109  70.1415 289.3709 0009030 284.1311  75.8345  6.42583319 93700
SITRO-AIS 5 (KATYS)     
1 57176U 23091L   26194.49640389  .00006620  00000+0  22999-3 0  9993
2 57176  97.5053 258.6543 0010813  18.4611 341.7020 15.30040819168366
SITRO-AIS 6 (CHIRKIN)   
1 57192U 23091AC  26194.47133998  .00005828  00000+0  22633-3 0  9996
2 57192  97.5060 257.6067 0011375  22.5651 337.6085 15.26417658168297
SITRO-AIS 8 (ANOKHIN)   
1 57193U 23091AD  26194.46651808  .00008660  00000+0  27528-3 0  9996
2 57193  97.5049 260.3220 0009692  14.5285 345.6233 15.32827558168475
SITRO-AIS 7 (FARTUSHNIY)
1 57194U 23091AE  26194.47996596  .00005297  00000+0  20799-3 0  9990
2 57194  97.5056 257.4265 0011321  23.7651 336.4108 15.26092146168289
SITRO-AIS 10 (BURDAEV)  
1 57199U 23091AK  26194.45019686  .00012075  00000+0  30875-3 0  9997
2 57199  97.5075 265.6363 0005008 348.7168  11.3964 15.39584756168807
SITRO-AIS 9 (SHCHUKIN)  
1 57201U 23091AM  26194.48515185  .00012243  00000+0  31826-3 0  9993
2 57201  97.5074 265.3812 0005266 348.9545  11.1583 15.39071596168799
SITRO-AIS 12 (SMIRENNIY)
1 57204U 23091AQ  26194.47076517  .00012370  00000+0  31849-3 0  9992
2 57204  97.5087 265.8501 0004821 341.8227  18.2845 15.39367169168817
SITRO-AIS 11 (SHEFFER)  
1 57208U 23091AU  26194.47677943  .00012449  00000+0  31592-3 0  9998
2 57208  97.5085 266.1197 0004722 341.1035  19.0034 15.39809175168833
SITRO-AIS 25            
1 59066U 24039R   26194.50490553  .00001834  00000+0  14494-3 0  9997
2 59066  95.3894 253.1776 0142657 235.4959 123.2728 14.93636467128655
SITRO-AIS 26            
1 59067U 24039S   26194.50990332  .00001852  00000+0  14705-3 0  9993
2 59067  95.3894 253.0732 0142999 236.0993 122.6565 14.93428645128649
SITRO-AIS 27            
1 59068U 24039T   26194.47272816  .00001403  00000+0  11106-3 0  9994
2 59068  95.3899 253.3316 0142044 234.7633 124.0231 14.93853384128663
SITRO-AIS 28            
1 59071U 24039U   26194.44958789  .00001968  00000+0  15454-3 0  9991
2 59071  95.3897 253.3645 0141961 234.6778 124.1108 14.93886927128669
GRBBETA                 
1 60237U 24128C   26194.23501684  .00001948  00000+0  14278-3 0  9992
2 60237  61.9896 124.8657 0037305 140.2081 220.1759 15.06800912110196
OOV-CUBE (TUBSAT-30)    
1 60240U 24128F   26194.40407737  .00001077  00000+0  94341-4 0  9992
2 60240  61.9937 134.1487 0041356 139.6220 220.7954 15.02869569110056
ROBUSTA-3A (MEDITERRAN*)
1 60243U 24128J   26194.32672485  .00004545  00000+0  27208-3 0  9990
2 60243  61.9864 115.7855 0038243 133.5897 226.8383 15.11970668110377
LASARSAT                
1 62391U 24247Q   26193.99643288  .00028123  00000+0  53151-3 0  9993
2 62391  44.9747 117.0092 0006976 149.4103 210.7196 15.47948222 87317
CROCUBE                 
1 62394U 24247T   26193.83193796  .00028068  00000+0  49242-3 0  9997
2 62394  44.9714 114.8252 0007253 157.3362 202.7851 15.50071349 87322
FORESAIL-1 PRIME        
1 66778U 25276DS  26194.15202083  .00002951  00000+0  14455-3 0  9997
2 66778  97.4194 266.9496 0003041  49.5627 310.5873 15.18928427 34341
KNACKSAT-2              
1 67683U 98067XZ  26194.27582286  .00036553  00000+0  40980-3 0  9997
2 67683  51.6258 163.0209 0008057 321.9354  38.1070 15.62269029 24352
